OBJECT_NAME,OBJECT_ID,EPOCH,MEAN_MOTION,ECCENTRICITY,INCLINATION,RA_OF_ASC_NODE,ARG_OF_PERICENTER,MEAN_ANOMALY,EPHEMERIS_TYPE,CLASSIFICATION_TYPE,NORAD_CAT_ID,ELEMENT_SET_NO,REV_AT_EPOCH,BSTAR,MEAN_MOTION_DOT,MEAN_MOTION_DDOT
ONEWEB-0534,2023-029B,2026-07-17T03:41:08.704608,13.20771247,.00020765,87.9174,268.4962,100.9945,259.1422,0,U,55797,999,16510,-.41841795E-3,-.157E-5,0
ONEWEB-0556,2023-029C,2026-07-16T16:56:19.471488,13.20769484,.00013896,87.9174,268.5842,114.7941,245.3337,0,U,55798,999,16504,-.24837677E-3,-.88E-6,0
ONEWEB-0562,2023-029D,2026-07-17T03:31:27.962688,13.20772489,.00013031,87.9172,268.4772,85.6145,274.5137,0,U,55799,999,16510,.25585629E-3,.117E-5,0
ONEWEB-0563,2023-029E,2026-07-17T03:24:11.420640,13.20770486,.00021724,87.9173,268.5083,104.2869,255.8505,0,U,55800,999,16509,.22152244E-3,.103E-5,0
ONEWEB-0564,2023-029F,2026-07-17T03:14:30.268320,13.20772684,.00017435,87.9175,268.4837,91.3838,268.7495,0,U,55801,999,16510,.15647715E-3,.77E-6,0
ONEWEB-0638,2023-029G,2026-07-17T05:32:59.277696,13.14504433,.00014768,87.8958,283.7630,105.0547,255.0746,0,U,55802,999,16334,.64894598E-3,.253E-5,0
ONEWEB-0639,2023-029H,2026-07-17T04:58:03.344160,13.19726840,.00026911,87.9187,298.9981,118.3792,241.7613,0,U,55803,999,16286,.13621657E-3,.67E-6,0
ONEWEB-0640,2023-029J,2026-07-16T18:49:02.215488,13.14502179,.00016375,87.8960,283.8432,118.1769,241.9527,0,U,55804,999,16330,-.49042313E-4,-.5E-7,0
ONEWEB-0641,2023-029K,2026-07-16T19:45:22.879008,13.19718229,.00020586,87.9193,299.0658,103.6810,256.4552,0,U,55805,999,16282,-.19893574E-2,-.783E-5,0
ONEWEB-0642,2023-029L,2026-07-17T06:33:36.617472,13.19726558,.00026901,87.9188,298.9859,110.4334,249.7088,0,U,55806,999,16287,.39651285E-4,.29E-6,0
ONEWEB-0643,2023-029M,2026-07-17T05:03:18.807840,13.14502711,.00026926,87.8955,283.7455,105.5176,254.6251,0,U,55807,999,16333,.25558803E-3,.108E-5,0
ONEWEB-0644,2023-029N,2026-07-16T19:31:44.004000,13.19726137,.00023077,87.9183,299.0786,105.5106,254.6282,0,U,55808,999,16281,-.58234395E-4,-.1E-6,0
ONEWEB-0645,2023-029P,2026-07-17T05:09:27.257184,13.19726567,.00020901,87.9186,298.9951,114.6993,245.4357,0,U,55809,999,16286,.17450951E-3,.83E-6,0
ONEWEB-0646,2023-029Q,2026-07-17T05:34:27.505056,13.19727369,.00022916,87.9187,298.9929,104.3305,255.8082,0,U,55810,999,16285,.3168074E-3,.14E-5,0
ONEWEB-0648,2023-029R,2026-07-16T19:09:34.943040,13.14503273,.0002424,87.8969,283.8041,121.1282,239.0086,0,U,55811,999,16328,-.43985825E-3,-.15E-5,0
ONEWEB-0649,2023-029S,2026-07-17T06:10:50.577312,13.19726315,.0002085,87.9186,298.9855,108.5318,251.6042,0,U,55812,999,16289,.39046002E-4,.29E-6,0
ONEWEB-0650,2023-029T,2026-07-17T06:04:01.653888,13.19726016,.00025341,87.9183,298.9889,110.4956,249.6449,0,U,55813,999,16286,.66002021E-4,.39E-6,0
ONEWEB-0652,2023-029U,2026-07-17T03:50:14.083008,13.14502774,.00019917,87.8968,283.7387,94.9032,265.2325,0,U,55814,999,16330,.57886734E-3,.227E-5,0
ONEWEB-0653,2023-029V,2026-07-17T05:17:00.318912,13.14502346,.00019452,87.8968,283.7251,99.6578,260.4771,0,U,55815,999,16334,.6293585E-3,.246E-5,0
ONEWEB-0654,2023-029W,2026-07-17T05:10:09.165504,13.14502059,.00017909,87.8967,283.7221,90.8630,269.2705,0,U,55816,999,16336,.35523626E-3,.144E-5,0
ONEWEB-0656,2023-029X,2026-07-17T03:04:48.011808,13.20770342,.00018386,87.9187,268.4643,87.2581,272.8763,0,U,55817,999,16510,.13115048E-3,.66E-6,0
ONEWEB-0657,2023-029Y,2026-07-16T19:02:11.232384,13.19727104,.00021644,87.9184,299.0788,79.0523,281.0853,0,U,55818,999,16281,-.78420265E-4,-.18E-6,0
ONEWEB-0658,2023-029Z,2026-07-16T18:55:20.472960,13.19725927,.00023724,87.9194,299.0579,106.7347,253.4046,0,U,55819,999,16282,.4471894E-5,.15E-6,0
ONEWEB-0660,2023-029AA,2026-07-16T17:40:31.345824,13.14501889,.00019756,87.8975,283.8132,109.1062,251.0282,0,U,55820,999,16328,-.47362636E-3,-.163E-5,0
ONEWEB-0661,2023-029AB,2026-07-16T18:30:46.444032,13.14502992,.00018297,87.8958,283.8461,107.3040,252.8290,0,U,55821,999,16327,.51242799E-3,.203E-5,0
ONEWEB-0662,2023-029AC,2026-07-17T04:29:03.488352,13.14502309,.00019599,87.8959,283.7686,107.9842,252.1502,0,U,55822,999,16337,-.53830892E-3,-.187E-5,0
ONEWEB-0663,2023-029AD,2026-07-17T03:50:06.579168,13.20871419,.00022164,87.9188,268.5290,109.5953,250.5420,0,U,55823,999,16510,.26441794E-3,.121E-5,0
ONEWEB-0664,2023-029AE,2026-07-17T04:34:30.690336,13.20772058,.00016159,87.9173,268.5006,103.4441,256.6873,0,U,55824,999,16510,.13803585E-3,.69E-6,0
ONEWEB-0665,2023-029AF,2026-07-17T05:23:52.002816,13.14502643,.00020623,87.8958,283.7365,109.1277,251.0076,0,U,55825,999,16335,.7640257E-3,.296E-5,0
ONEWEB-0666,2023-029AG,2026-07-17T04:24:47.015136,13.20773199,.00024608,87.9175,268.4921,82.9364,277.2049,0,U,55826,999,16511,.95595992E-4,.52E-6,0
